[Satellite]
VERSION=1.1
NAME=GPS BIIR-5  (PRN 28)
NICKNAME=GPS BIIR-5  (PRN 28)
TLE1=1 26407U 00040A   20157.56903000 -.00000067  00000-0  00000-0 0  9995
TLE2=2 26407  56.0047 302.6401 0186074 279.2957  91.4134  2.00564729145777
STATUS=0
